[{"OBJECT_NAME":"STARLINK-34081","OBJECT_ID":"2025-102Y","EPOCH":"2026-03-09T22:00:01.999584","MEAN_MOTION":14.98343703,"ECCENTRICITY":0.00035553,"INCLINATION":70,"RA_OF_ASC_NODE":114.0075,"ARG_OF_PERICENTER":266.7262,"MEAN_ANOMALY":72.8225,"EPHEMERIS_TYPE":0,"CLASSIFICATION_TYPE":"U","NORAD_CAT_ID":64044,"ELEMENT_SET_NO":999,"REV_AT_EPOCH":576,"BSTAR":0.0026762072,"MEAN_MOTION_DOT":0.00031998,"MEAN_MOTION_DDOT":0},{"OBJECT_NAME":"CZ-4B DEB","OBJECT_ID":"2013-057D","EPOCH":"2026-03-09T09:16:47.914752","MEAN_MOTION":14.5751129,"ECCENTRICITY":0.01795645,"INCLINATION":74.9688,"RA_OF_ASC_NODE":52.7396,"ARG_OF_PERICENTER":117.4056,"MEAN_ANOMALY":244.551,"EPHEMERIS_TYPE":0,"CLASSIFICATION_TYPE":"U","NORAD_CAT_ID":40531,"ELEMENT_SET_NO":999,"REV_AT_EPOCH":57727,"BSTAR":0.00073382472,"MEAN_MOTION_DOT":4.144e-5,"MEAN_MOTION_DDOT":0}]
